#dP2022  8 22  6  0  0.00000000      96 __u+U ITR00 EXT  IAC
## 2224 108000.00000000   900.00000000 59813 0.2500000000000
+  117   C06C07C08C09C10C11C12C13C14C16C19C20C21C22C23C24C25
+        C26C27C28C29C30C32C33C34C35C36C37C38C39C40C41C42C43
+        C44C45C46E01E02E03E04E05E07E08E09E10E11E12E13E14E15
+        E18E19E21E24E25E26E27E30E31E33E34E36G01G02G03G04G05
+        G06G07G08G09G10G11G12G13G14G15G16G17G18G19G20G21G22
+        G23G24G25G26G27G28G29G30G31G32J02J03R01R02R03R04R05
+        R07R08R09R11R12R13R14R15R17R18R19R20R21R24R25  0  0
++        10 11 10 10 10  7  8  8  9  9  9  9  8  9  7  8  8
++         8  8  8  9  7  8 10 10  8  7  8 10  9 11  8  8  8
++         9  9  8  7  7  7  9  7  8  7  7  8  8  7  8  8  7
++         8 10  8  7  6  8  8  8  7  7  8  7  7  7  8  7  8
++         7  7  6  8  7  7  7  7  7  8  8  9  7  7  8  7  8
++         8  8  7  7  7  6  7  6  8  7  9  9  8  9  7  8  9
++        10  9 10  8  8  9  8  8  9  8  8  9  8  7 10  0  0
%c M  cc GPS ccc cccc cccc cccc cccc ccccc ccccc ccccc ccccc
%c cc cc ccc ccc cccc cccc cccc cccc ccccc ccccc ccccc ccccc
%f  0.0000000  0.000000000  0.00000000000  0.000000000000000
%f  0.0000000  0.000000000  0.00000000000  0.000000000000000
%i    0    0    0    0      0      0      0      0         0
%i    0    0    0    0      0      0      0      0         0
/* IAC                                ULTRA-RAPID PREDICTION
/* S/V CLOCKS ARE ALIGNED TO GNSS TIME                      
/* G:C1WC2W R:C1PC2P E:C1XC5X C:C2IC6I J:C1CC2S             
/* PCV:IGS14_2218 OL/AL:FES2004  NONE     YN ORB:CoN CLK:CoN
*  2022 08 22 19 15  0.00000000
PC06  -9323.314878  40359.203308  -7153.902123    669.307496
PC07  -5265.989958  27397.166706  31679.609869    -38.401920
PC08 -19391.942716  26419.465918 -26643.724188    449.318962
PC09  -4498.238492  41603.572786   2236.667457   -886.962289
PC10   2714.710612  29978.615955  29976.880657    105.674578
PC11 -12941.938805  15910.193521  19005.244380   -453.746840
PC12 -15138.636858  -4363.862061  23063.890881   -542.671035
PC13 -12321.006590  27265.833698 -29711.344279     59.931727
PC14 -17144.510201   6794.641400 -20914.179449    606.260524
PC16 -10894.561165  39207.549303 -10282.831779    141.714881
PC19   8193.162266 -13482.827862  23036.194964   -487.439682
PC20  22427.117507   -289.835880  16629.834821    223.695500
PC21 -24101.544062 -14039.022230    266.192354   -240.065578
PC22 -11392.427466 -19486.385904  16383.619621   -289.969299
PC23    134.685435  17798.485094  21506.044009   -969.995881
PC24 -25517.140766   8214.474215  -7799.973953   -969.772754
PC25 -17014.390234  19369.809236  10702.903015   -689.129763
PC26 -18855.143337  -5261.809207 -19908.221478    691.448032
PC27  13606.254413  14113.481989 -19878.583637      9.332238
PC28   4198.418599  26820.649809  -6486.488133      4.291641
PC29   7421.115570 -24248.241477 -11651.865092      3.384559
PC30  15346.861873  -6660.106881 -22345.383107    502.342093
PC32  24206.815045  13893.867299   -326.858076   -804.458265
PC33  -8191.217363  13510.820466 -23004.033760   -475.084860
PC34 -15179.682623   7864.338803  22040.749024   -330.360122
PC35  -4327.739169 -27081.097801   5226.243787    424.378804
PC36  17902.731399 -18806.819477 -10188.531439   -968.085806
PC37  17752.417674   6714.761159  20472.313840   -938.387222
PC38 -25209.829866  27661.307433 -19575.287770     18.996503
PC39 -12154.976877  36867.626587 -16186.574143     -0.292702
PC40  -9023.745912  21475.079283  35152.774022     -2.774287
PC41  10993.900189  19447.837512 -16679.883182     -9.718883
PC42 -22973.428160   -575.250772 -15780.074387   -160.879422
PC43  -7973.580084  23781.086005  12206.547197     10.095732
PC44 -14137.408430 -13864.005250  19660.618451     25.971745
PC45   -459.895161 -17549.324741 -21678.088866    841.735180
PC46  25467.788542  -9456.350545   6307.145828   -500.687954
PE01  28434.785076   4750.583133   6720.002656   -539.796313
PE02 -28504.361853  -4620.187986  -6529.367323    320.000213
PE03 -20884.771565 -11316.634508 -17657.121684   -592.161456
PE04  14481.821334  -8987.877703  24204.820659  -1099.163235
PE05 -15141.192737 -25426.127737   -567.337058   -151.076272
PE07    699.251620  24526.467060 -16562.537580   -698.907093
PE08 -14245.792200   9099.817093 -24300.076203   -585.794491
PE09   -780.661641 -24427.185521  16689.016981   -632.115029
PE10  16302.459345 -24479.551449  -3293.438765   -471.645783
PE11  10057.366478 -26909.553496   7130.711748   2530.573671
PE12  19727.599782 -18251.174476 -12422.972370   -128.988463
PE13 -10536.907186  26907.601093  -6424.033414    430.342669
PE14   3550.749528  27251.680283   7792.487324  -1741.948380
PE15 -19679.401299  18169.408765  12604.112385    725.218707
PE18   7433.044905 -21397.320714 -17242.971849  -1064.456779
PE19  20740.778905  13856.386969  15941.433787  -4737.444711
PE21  15726.822476  14173.088660  20694.538397   -753.345093
PE24   8118.197062 -16060.912679 -23503.246812   -795.274454
PE25 -15441.268524 -14262.973457 -20827.768165   -585.396817
PE26   5483.003906  19202.264294 -21855.221975  -1525.457437
PE27  -6863.717264  16226.111951  23796.773883   -374.437814
PE30 -25757.524842   8132.448661  12117.877210   -775.734975
PE31  25201.362756  -8698.759783 -12847.293480   -502.139353
PE33  17160.015038   1239.775854 -24088.566192   -453.699775
PE34 -17246.416276   -989.739861  24027.345622     -0.729820
PE36  -4701.059152 -19782.193334  21506.779350   -420.532106
PG01 -13541.374566  22392.325026  -3596.989638    297.295126
PG02  17803.074500 -17187.016104  -9264.809876   -648.382706
PG03 -11886.852847  12612.812428 -20216.861897   -337.154634
PG04  -4539.323214  19905.702292 -16934.312919   -129.460353
PG05  22948.494833  -6777.955591  11498.485799    -93.855868
PG06  14321.450874   4750.506205 -21806.496743    434.691186
PG07   -716.894531  20991.185371  16373.919569    312.958863
PG08 -10345.136643  12281.174212  21053.363514    -81.551872
PG09   5533.301288  24708.741668  -8033.350777   -305.175562
PG10 -19510.433414 -11548.271469  14229.182803   -537.339761
PG11  19821.267902  -6548.245556 -16405.285206    -12.186099
PG12  14226.486828 -11278.735341 -19617.067979   -266.428371
PG13  14787.843366  -2642.250708  21748.932921    372.930220
PG14  17624.819565  13150.120897  14978.498361   -108.044372
PG15   9260.775967 -13693.446440  20303.997002    -35.151397
PG16 -25930.927834   -354.941176   6482.845185   -521.544220
PG17  12955.446894  22169.387468  -6234.411806    651.265471
PG18   1140.563074 -20582.302337  16665.977708     73.387525
PG19  15930.735035  15115.599939 -15360.159932    200.669199
PG20  26392.689749   -737.621966  -1280.616573    492.634525
PG21 -17095.838451  18669.118405   7295.111743    160.256846
PG22 -16521.618541 -12605.979789 -16222.476661    314.453187
PG23  -9473.890431 -14504.171011  20155.271608    -37.716069
PG24  14250.395592 -22088.729385   1210.912521    160.250203
PG25     34.373454 -15508.464375 -21858.408271    363.762547
PG26 -26258.766662  -3630.477450  -3551.165896    224.987432
PG27 -16232.489112  -1269.279944  20847.171328    217.867164
PG28  23283.118170  10065.554079   7955.198035    340.593674
PG29  -3189.155036 -24981.877694  -8352.577653   -545.092080
PG30   8699.470619  14072.966272  20828.085043   -536.226085
PG31 -16367.406626  -2893.893819 -20940.677530   -190.617790
PG32 -15790.219034 -19588.601659  -8656.847496   -211.304635
PJ02 -30921.787318  22996.962891  22091.278028     -3.599512
PJ03 -28709.338830  27303.079070  19561.345329     -0.862108
PR01   8833.308733  -6966.991053  22891.067446     13.558009
PR02  -8313.692613 -17527.424482  16639.173582    527.654359
PR03 -19218.243529 -16806.746845    707.242417     62.332553
PR04 -19095.651853  -6958.752539 -15398.339377    154.853885
PR05  -8631.677492   6734.205114 -23033.093169     98.374976
PR07  19437.783386  16477.261884    185.082121     39.794850
PR08  19112.172015   6636.470198  15569.916463    -66.843127
PR09  -3124.363334  12779.762141  21861.165742     72.630137
PR11  23716.495894  -4752.171261   8141.957345     29.652803
PR12  19592.024539 -12469.090880 -10504.341895     20.319175
PR13   4895.148035 -12859.059594 -21486.665696    -25.998671
PR14 -14397.415875  -5237.508688 -20369.609235     24.432379
PR15 -23961.996472   5005.706512  -7134.089804     94.088566
PR17  -6146.039350 -15214.401681  19515.527689    554.684632
PR18 -10914.581237   2105.747694  22964.974674     38.786910
PR19 -10860.601612  17255.628339  15332.769947   -200.943187
PR20  -3679.609853  24849.641100  -4332.158464    -76.994478
PR21   6621.929413  13900.889223 -20352.348713   -327.683051
PR24   2560.901598 -24873.657198   4991.800239    110.373192
PR25  11504.539739  -2388.970820 -22618.269955     12.398561
EOF
